{"phys_par":[{"ref":"IRAS-A-FPA-3-RDR-IMPS-V6.0","value":"3.34","name":"H","desc":"absolute magnitude (magnitude at 1AU from Sun and observer)","notes":"IRAS observations used: 15","sigma":null,"title":"absolute magnitude","units":"mag"},{"ref":"PDS3 (MPC 17257)","value":"0.12","name":"G","desc":"magnitude slope parameter used in the standard asteroid H/G mag. law","notes":"Fit","sigma":null,"title":"magnitude slope","units":null},{"ref":"Nature vol. 537, pp515-517 (22 September 2016)","value":"939.4","name":"diameter","desc":"effective body diameter","notes":null,"sigma":"0.2","title":"diameter","units":"km"},{"ref":"Nature vol. 537, pp515-517 (22 September 2016)","value":"964.4 x 964.2 x 891.8","name":"extent","desc":"tri(or bi)-axial body dimensions","notes":"fit w.r.t. center of mass and in body-fixed frame","sigma":"0.2 x 0.2 x 0.2","title":"extent","units":"km"},{"ref":"Nature vol. 537, pp515-517 (22 September 2016)","value":"62.6284","name":"GM","desc":"mass expressed as a product of the mass (M) and gravitational constant (G)","notes":null,"sigma":"0.0009","title":"GM","units":"km^3/s^2"},{"ref":"Nature vol. 537, pp515-517 (22 September 2016)","value":"2.162","name":"density","desc":"bulk density","notes":null,"sigma":"0.008","title":"bulk density","units":"g/cm^3"},{"ref":"Nature vol. 537, pp515-517 (22 September 2016)","value":"291.421/66.758","name":"pole","desc":"spin-pole direction in R.A./Dec.","notes":null,"sigma":"0.007/0.002","title":"pole direction","units":null},{"ref":"Li et al. (2006) Icarus v182:pp143-160","value":"0.090","name":"albedo","desc":"geometric albedo","notes":"V-band geometric albedo","sigma":"0.003","title":"geometric albedo","units":null},{"ref":"EAR-A-5-DDR-UBV-MEAN-VALUES-V1.1","value":".713","name":"BV","desc":"color index B-V","notes":"#obs=52; phase (min.=1.47, mean=11.85, max.=22.59) deg.","sigma":".014","title":"B-V","units":"mag"},{"ref":"EAR-A-5-DDR-UBV-MEAN-VALUES-V1.1","value":".426","name":"UB","desc":"color index U-B","notes":"#obs=52; phase (min.=1.47, mean=12.16, max.=22.59) deg.","sigma":".026","title":"U-B","units":"mag"},{"ref":"EAR-A-5-DDR-TAXONOMY-V4.0","value":"G","name":"spec_T","desc":"Tholen spectral taxonomic classification","notes":"used 7 color indices; used ground-based radiometric albedo","sigma":null,"title":"Tholen spectral type","units":null},{"ref":"EAR-A-5-DDR-TAXONOMY-V4.0","value":"C","name":"spec_B","desc":"SMASSII spectral taxonomic classification","notes":"based on a high-resolution spectrum by Xu et al. (1995) or Bus and Binzel (2002)","sigma":null,"title":"SMASSII spectral type","units":null}],"object":{"spkid_alt":[],"neo":false,"des_alt":[{"des":"1943 XB"},{"des":"A899 OF"}],"orbit_class":{"name":"Main-belt Asteroid","code":"MBA"},"pha":false,"spkid":"2000001","kind":"an","orbit_id":"34","fullname":"1 Ceres","des":"1","prefix":null},"ca_data":[{"sigma_t":"0.0627958411938356","unc_minor":"8.97976877520543","sigma_tf":"< 00:01","cd":"2056-Jun-26 01:01","orbit_ref":"34","dist_min":"0.025833755101647","dist":"0.0258343455489748","v_rel":"4.68387573708663","dist_max":"0.025834936013457","body":"Hygie","unc_angle":"51.1927599439175","v_inf":"4.68387541778612","unc_major":"45.5725124262253","jd":"2472175.542342036"}],"vi_data":[],"discovery":{"who":"Piazzi, G.","site":null,"location":"Palermo","ref":"DISCOVERY.DB","date":"1801-Jan-01"},"alt_orbits":[],"signature":{"source":"NASA/JPL Small-Body Database (SBDB) API","version":"1.0"},"orbit":{"source":"JPL","moid_jup":"2.10258","t_jup":"3.310","condition_code":"0","not_valid_before":null,"rms":".36954","model_pars":[],"orbit_id":"34","producer":"Davide Farnocchia","first_obs":"1950-04-09","soln_date":"2017-04-04 16:23:28","two_body":null,"epoch":"2458200.5","elements":[{"value":".07553461024389638","sigma":"1.1644E-11","name":"e","title":"eccentricity","label":"e","units":null},{"value":"2.767046248500289","sigma":"2.6002E-11","name":"a","title":"semi-major axis","label":"a","units":"au"},{"value":"2.558038488592984","sigma":"5.622E-11","name":"q","title":"perihelion distance","label":"q","units":"au"},{"value":"10.5935097971363","sigma":"1.9258E-9","name":"i","title":"inclination","label":"i","units":"deg"},{"value":"80.30991865594387","sigma":"1.1728E-8","name":"om","title":"longitude of the ascending node","label":"node","units":"deg"},{"value":"73.11534200131032","sigma":"1.1437E-8","name":"w","title":"argument of perihelion","label":"peri","units":"deg"},{"value":"352.2304611765882","sigma":"2.6858E-9","name":"ma","title":"mean anomaly","label":"M","units":"deg"},{"value":"2458236.784053135587","sigma":"1.302E-8","name":"tp","title":"time of perihelion passage","label":"tp","units":"JED"},{"value":"1681.214216917383","sigma":"2.3698E-8","name":"per","title":"orbital period","label":"period","units":"d"},{"value":".2141309515334005","sigma":"3.0183E-12","name":"n","title":"mean motion","label":"n","units":"deg/d"},{"value":"2.976054008407594","sigma":"2.7966E-11","name":"ad","title":"aphelion distance","label":"Q","units":"au"}],"equinox":"J2000","data_arc":"24437","not_valid_after":null,"n_del_obs_used":"405","sb_used":"SB431-N16","n_obs_used":"5993","covariance":{"epoch":"2449731.5","elements":[{"value":".07610292126891821","sigma":1.21678807302076e-11,"name":"e","title":"eccentricity","label":"e","units":null},{"value":"2.556624726195814","sigma":5.74243860170291e-11,"name":"q","title":"perihelion distance","label":"q","units":"au"},{"value":"2449823.092280794015","sigma":1.04497625875816e-07,"name":"tp","title":"time of perihelion passage","label":"tp","units":"JED"},{"value":"80.65851514365535","sigma":1.17382967978942e-08,"name":"om","title":"longitude of the ascending node","label":"node","units":"deg"},{"value":"71.44921526124109","sigma":1.1701178449809e-08,"name":"w","title":"argument of perihelion","label":"peri","units":"deg"},{"value":"10.60069567603618","sigma":1.92643077649528e-09,"name":"i","title":"inclination","label":"i","units":"deg"}],"data":[["1.480573214645576E-22","-6.984385802006002E-22","1.268877788492851E-18","7.525057948038987E-20","-7.760611344164345E-20","2.009795680834511E-20"],["-6.984385802006002E-22","3.297560109432765E-21","-5.99452243880435E-18","-3.518782349474807E-19","3.635709910272377E-19","-9.467543128624248E-20"],["1.268877788492851E-18","-5.99452243880435E-18","1.091975381368203E-14","6.396202480992666E-16","-6.584034693982285E-16","1.719583879923742E-16"],["7.525057948038987E-20","-3.518782349474807E-19","6.396202480992666E-16","1.377876117154527E-16","-1.369640429883957E-16","1.509623558437643E-17"],["-7.760611344164345E-20","3.635709910272377E-19","-6.584034693982285E-16","-1.369640429883957E-16","1.369175771142739E-16","-1.531116771012675E-17"],["2.009795680834511E-20","-9.467543128624248E-20","1.719583879923742E-16","1.509623558437643E-17","-1.531116771012675E-17","3.711135536628221E-18"]],"labels":["e","q","tp","node","peri","i"]},"comment":null,"pe_used":"DE431","last_obs":"2017-03-05","moid":"1.59353","n_dop_obs_used":"0"},"radar_obs":[]}
